STARLINK-33839          
1 64113U 25110T   25273.76788281  .00077215  00000+0  19209-2 0  9994
2 64113  53.1585  52.0034 0001229  99.8019 260.3125 15.39618939 21363
STARLINK-34064          
1 64114U 25110U   25274.10638984  .00110680  00000+0  27340-2 0  9997
2 64114  53.1599  50.5630 0001543 100.5154 259.6025 15.39653134 21415
STARLINK-34067          
1 64115U 25110V   25274.08815001  .00048585  00000+0  12161-2 0  9991
2 64115  53.1582  50.4464 0001465 106.1688 253.9478 15.39640289 21415
STARLINK-34080          
1 64116U 25110W   25274.08781980  .00068721  00000+0  17124-2 0  9998
2 64116  53.1582  50.4443 0001385  52.7693 307.3438 15.39622691 21402
STARLINK-34122          
1 64117U 25110X   25273.82384837  .00081200  00000+0  20206-2 0  9992
2 64117  53.1576  51.6401 0001409 103.7151 256.4011 15.39587454 21370
STARLINK-33964          
1 64118U 25110Y   25274.09279739  .00057769  00000+0  14421-2 0  9992
2 64118  53.1587  50.4750 0001783  91.4546 268.6663 15.39644261 21416
STARLINK-34160          
1 64119U 25110Z   25274.00001157 -.00047067  00000+0 -11704-2 0  9994
2 64119  53.1575  50.8063 0000771  86.3746 172.5297 15.39713586  5769
STARLINK-34151          
1 64120U 25110AA  25273.81456068  .00076093  00000+0  18951-2 0  9999
2 64120  53.1581  51.5814 0001053  66.8423 293.2693 15.39592596 21371
STARLINK-34189          
1 64121U 25110AB  25273.81420863  .00012909  00000+0  33220-3 0  9997
2 64121  53.1582  51.5786 0001465  74.5314 285.5853 15.39616488 21372
STARLINK-33991          
1 64122U 25110AC  25273.81920608  .00074071  00000+0  18454-2 0  9999
2 64122  53.1582  51.6111 0001532 108.6757 251.4415 15.39593886 21362
STARLINK-11727 [DTC]    
1 64123U 25111A   25274.14757300  .00423811  00000+0  31265-2 0  9990
2 64123  42.9986 215.8438 0001832 237.7210 122.3480 15.70949703 21540
STARLINK-11724 [DTC]    
1 64124U 25111B   25274.11574351  .00377987  00000+0  28107-2 0  9994
2 64124  43.0001 215.5880 0001795 257.5050 102.5617 15.70896220 21546
STARLINK-11725 [DTC]    
1 64125U 25111C   25274.25883871  .00484757  00000+0  35678-2 0  9995
2 64125  42.9988 214.9497 0001008 319.8502  40.2291 15.70822103 21564
STARLINK-11717 [DTC]    
1 64126U 25111D   25274.13697391  .00319020  00000+0  23845-2 0  9996
2 64126  42.9985 215.7568 0001057 245.7551 114.3206 15.70949429 21497
STARLINK-11721 [DTC]    
1 64127U 25111E   25273.97264643  .00119904  00000+0  92393-3 0  9992
2 64127  43.0008 216.2262 0001858 282.1563  77.9096 15.70854597 21526
STARLINK-11722 [DTC]    
1 64128U 25111F   25274.24821622  .00213248  00000+0  16196-2 0  9992
2 64128  42.9974 214.8624 0001604 284.1940  75.8749 15.70891623 21515
