[{"OBJECT_NAME":"STARLINK-33839","OBJECT_ID":"2025-110T","EPOCH":"2025-09-30T18:25:45.074784","MEAN_MOTION":15.39618939,"ECCENTRICITY":0.00012291,"INCLINATION":53.1585,"RA_OF_ASC_NODE":52.0034,"ARG_OF_PERICENTER":99.8019,"MEAN_ANOMALY":260.3125,"EPHEMERIS_TYPE":0,"CLASSIFICATION_TYPE":"U","NORAD_CAT_ID":64113,"ELEMENT_SET_NO":999,"REV_AT_EPOCH":2136,"BSTAR":0.0019209245,"MEAN_MOTION_DOT":0.00077215,"MEAN_MOTION_DDOT":0},{"OBJECT_NAME":"STARLINK-34064","OBJECT_ID":"2025-110U","EPOCH":"2025-10-01T02:33:12.082176","MEAN_MOTION":15.39653134,"ECCENTRICITY":0.0001543,"INCLINATION":53.1599,"RA_OF_ASC_NODE":50.563,"ARG_OF_PERICENTER":100.5154,"MEAN_ANOMALY":259.6025,"EPHEMERIS_TYPE":0,"CLASSIFICATION_TYPE":"U","NORAD_CAT_ID":64114,"ELEMENT_SET_NO":999,"REV_AT_EPOCH":2141,"BSTAR":0.0027340005,"MEAN_MOTION_DOT":0.0011068,"MEAN_MOTION_DDOT":0},{"OBJECT_NAME":"STARLINK-34067","OBJECT_ID":"2025-110V","EPOCH":"2025-10-01T02:06:56.160864","MEAN_MOTION":15.39640289,"ECCENTRICITY":0.00014657,"INCLINATION":53.1582,"RA_OF_ASC_NODE":50.4464,"ARG_OF_PERICENTER":106.1688,"MEAN_ANOMALY":253.9478,"EPHEMERIS_TYPE":0,"CLASSIFICATION_TYPE":"U","NORAD_CAT_ID":64115,"ELEMENT_SET_NO":999,"REV_AT_EPOCH":2141,"BSTAR":0.0012160639,"MEAN_MOTION_DOT":0.00048585,"MEAN_MOTION_DDOT":0},{"OBJECT_NAME":"STARLINK-34080","OBJECT_ID":"2025-110W","EPOCH":"2025-10-01T02:06:27.630720","MEAN_MOTION":15.39622691,"ECCENTRICITY":0.00013854,"INCLINATION":53.1582,"RA_OF_ASC_NODE":50.4443,"ARG_OF_PERICENTER":52.7693,"MEAN_ANOMALY":307.3438,"EPHEMERIS_TYPE":0,"CLASSIFICATION_TYPE":"U","NORAD_CAT_ID":64116,"ELEMENT_SET_NO":999,"REV_AT_EPOCH":2140,"BSTAR":0.0017124005,"MEAN_MOTION_DOT":0.00068721,"MEAN_MOTION_DDOT":0},{"OBJECT_NAME":"STARLINK-34122","OBJECT_ID":"2025-110X","EPOCH":"2025-09-30T19:46:20.499168","MEAN_MOTION":15.39587454,"ECCENTRICITY":0.00014097,"INCLINATION":53.1576,"RA_OF_ASC_NODE":51.6401,"ARG_OF_PERICENTER":103.7151,"MEAN_ANOMALY":256.4011,"EPHEMERIS_TYPE":0,"CLASSIFICATION_TYPE":"U","NORAD_CAT_ID":64117,"ELEMENT_SET_NO":999,"REV_AT_EPOCH":2137,"BSTAR":0.0020205836,"MEAN_MOTION_DOT":0.000812,"MEAN_MOTION_DDOT":0},{"OBJECT_NAME":"STARLINK-33964","OBJECT_ID":"2025-110Y","EPOCH":"2025-10-01T02:13:37.694496","MEAN_MOTION":15.39644261,"ECCENTRICITY":0.00017836,"INCLINATION":53.1587,"RA_OF_ASC_NODE":50.475,"ARG_OF_PERICENTER":91.4546,"MEAN_ANOMALY":268.6663,"EPHEMERIS_TYPE":0,"CLASSIFICATION_TYPE":"U","NORAD_CAT_ID":64118,"ELEMENT_SET_NO":999,"REV_AT_EPOCH":2141,"BSTAR":0.0014421046,"MEAN_MOTION_DOT":0.00057769,"MEAN_MOTION_DDOT":0},{"OBJECT_NAME":"STARLINK-34160","OBJECT_ID":"2025-110Z","EPOCH":"2025-10-01T00:00:00.999648","MEAN_MOTION":15.39713586,"ECCENTRICITY":7.718e-5,"INCLINATION":53.1575,"RA_OF_ASC_NODE":50.8063,"ARG_OF_PERICENTER":86.3746,"MEAN_ANOMALY":172.5297,"EPHEMERIS_TYPE":0,"CLASSIFICATION_TYPE":"U","NORAD_CAT_ID":64119,"ELEMENT_SET_NO":999,"REV_AT_EPOCH":576,"BSTAR":-0.0011703762,"MEAN_MOTION_DOT":-0.00047067,"MEAN_MOTION_DDOT":0},{"OBJECT_NAME":"STARLINK-34151","OBJECT_ID":"2025-110AA","EPOCH":"2025-09-30T19:32:58.042752","MEAN_MOTION":15.39592596,"ECCENTRICITY":0.00010532,"INCLINATION":53.1581,"RA_OF_ASC_NODE":51.5814,"ARG_OF_PERICENTER":66.8423,"MEAN_ANOMALY":293.2693,"EPHEMERIS_TYPE":0,"CLASSIFICATION_TYPE":"U","NORAD_CAT_ID":64120,"ELEMENT_SET_NO":999,"REV_AT_EPOCH":2137,"BSTAR":0.0018950663,"MEAN_MOTION_DOT":0.00076093,"MEAN_MOTION_DDOT":0},{"OBJECT_NAME":"STARLINK-34189","OBJECT_ID":"2025-110AB","EPOCH":"2025-09-30T19:32:27.625632","MEAN_MOTION":15.39616488,"ECCENTRICITY":0.00014657,"INCLINATION":53.1582,"RA_OF_ASC_NODE":51.5786,"ARG_OF_PERICENTER":74.5314,"MEAN_ANOMALY":285.5853,"EPHEMERIS_TYPE":0,"CLASSIFICATION_TYPE":"U","NORAD_CAT_ID":64121,"ELEMENT_SET_NO":999,"REV_AT_EPOCH":2137,"BSTAR":0.00033219627,"MEAN_MOTION_DOT":0.00012909,"MEAN_MOTION_DDOT":0},{"OBJECT_NAME":"STARLINK-33991","OBJECT_ID":"2025-110AC","EPOCH":"2025-09-30T19:39:39.405312","MEAN_MOTION":15.39593886,"ECCENTRICITY":0.00015328,"INCLINATION":53.1582,"RA_OF_ASC_NODE":51.6111,"ARG_OF_PERICENTER":108.6757,"MEAN_ANOMALY":251.4415,"EPHEMERIS_TYPE":0,"CLASSIFICATION_TYPE":"U","NORAD_CAT_ID":64122,"ELEMENT_SET_NO":999,"REV_AT_EPOCH":2136,"BSTAR":0.0018453794,"MEAN_MOTION_DOT":0.00074071,"MEAN_MOTION_DDOT":0},{"OBJECT_NAME":"STARLINK-11727 [DTC]","OBJECT_ID":"2025-111A","EPOCH":"2025-10-01T03:32:30.307200","MEAN_MOTION":15.70949703,"ECCENTRICITY":0.00018322,"INCLINATION":42.9986,"RA_OF_ASC_NODE":215.8438,"ARG_OF_PERICENTER":237.721,"MEAN_ANOMALY":122.348,"EPHEMERIS_TYPE":0,"CLASSIFICATION_TYPE":"U","NORAD_CAT_ID":64123,"ELEMENT_SET_NO":999,"REV_AT_EPOCH":2154,"BSTAR":0.0031264545,"MEAN_MOTION_DOT":0.00423811,"MEAN_MOTION_DDOT":0},{"OBJECT_NAME":"STARLINK-11724 [DTC]","OBJECT_ID":"2025-111B","EPOCH":"2025-10-01T02:46:40.239264","MEAN_MOTION":15.7089622,"ECCENTRICITY":0.0001795,"INCLINATION":43.0001,"RA_OF_ASC_NODE":215.588,"ARG_OF_PERICENTER":257.505,"MEAN_ANOMALY":102.5617,"EPHEMERIS_TYPE":0,"CLASSIFICATION_TYPE":"U","NORAD_CAT_ID":64124,"ELEMENT_SET_NO":999,"REV_AT_EPOCH":2154,"BSTAR":0.0028106958,"MEAN_MOTION_DOT":0.00377987,"MEAN_MOTION_DDOT":0},{"OBJECT_NAME":"STARLINK-11725 [DTC]","OBJECT_ID":"2025-111C","EPOCH":"2025-10-01T06:12:43.664544","MEAN_MOTION":15.70822103,"ECCENTRICITY":0.00010088,"INCLINATION":42.9988,"RA_OF_ASC_NODE":214.9497,"ARG_OF_PERICENTER":319.8502,"MEAN_ANOMALY":40.2291,"EPHEMERIS_TYPE":0,"CLASSIFICATION_TYPE":"U","NORAD_CAT_ID":64125,"ELEMENT_SET_NO":999,"REV_AT_EPOCH":2156,"BSTAR":0.0035677996,"MEAN_MOTION_DOT":0.00484757,"MEAN_MOTION_DDOT":0},{"OBJECT_NAME":"STARLINK-11717 [DTC]","OBJECT_ID":"2025-111D","EPOCH":"2025-10-01T03:17:14.545824","MEAN_MOTION":15.70949429,"ECCENTRICITY":0.00010575,"INCLINATION":42.9985,"RA_OF_ASC_NODE":215.7568,"ARG_OF_PERICENTER":245.7551,"MEAN_ANOMALY":114.3206,"EPHEMERIS_TYPE":0,"CLASSIFICATION_TYPE":"U","NORAD_CAT_ID":64126,"ELEMENT_SET_NO":999,"REV_AT_EPOCH":2149,"BSTAR":0.0023844748,"MEAN_MOTION_DOT":0.0031902,"MEAN_MOTION_DDOT":0},{"OBJECT_NAME":"STARLINK-11721 [DTC]","OBJECT_ID":"2025-111E","EPOCH":"2025-09-30T23:20:36.651552","MEAN_MOTION":15.70854597,"ECCENTRICITY":0.00018583,"INCLINATION":43.0008,"RA_OF_ASC_NODE":216.2262,"ARG_OF_PERICENTER":282.1563,"MEAN_ANOMALY":77.9096,"EPHEMERIS_TYPE":0,"CLASSIFICATION_TYPE":"U","NORAD_CAT_ID":64127,"ELEMENT_SET_NO":999,"REV_AT_EPOCH":2152,"BSTAR":0.00092393219,"MEAN_MOTION_DOT":0.00119904,"MEAN_MOTION_DDOT":0},{"OBJECT_NAME":"STARLINK-11722 [DTC]","OBJECT_ID":"2025-111F","EPOCH":"2025-10-01T05:57:25.881408","MEAN_MOTION":15.70891623,"ECCENTRICITY":0.00016043,"INCLINATION":42.9974,"RA_OF_ASC_NODE":214.8624,"ARG_OF_PERICENTER":284.194,"MEAN_ANOMALY":75.8749,"EPHEMERIS_TYPE":0,"CLASSIFICATION_TYPE":"U","NORAD_CAT_ID":64128,"ELEMENT_SET_NO":999,"REV_AT_EPOCH":2151,"BSTAR":0.0016195858,"MEAN_MOTION_DOT":0.00213248,"MEAN_MOTION_DDOT":0}]
